1 42017U 17008BX  21166.46567998  .00002150  00000-0  80906-4 0  9995
2 42017  97.3154 234.1009 0007684 111.4693 248.7367 15.28185001240952